COSMOS 2058             
1 20465U 90010A   26082.35287519  .00005129  00000+0  30170-3 0  9995
2 20465  82.4682  33.9637 0007597 293.1425  66.9005 15.11438970944309
SL-14 R/B               
1 20466U 90010B   26082.44595350  .00000477  00000+0  54916-4 0  9997
2 20466  82.4989 254.4630 0018383 253.3912 106.5284 14.83580844930522
SL-14 R/B               
1 20511U 90018B   26082.40948228  .00000491  00000+0  58610-4 0  9999
2 20511  82.5228 210.2676 0017292  50.3754 309.8983 14.82158381924610
HST                     
1 20580U 90037B   26082.31804240  .00008388  00000+0  27547-3 0  9998
2 20580  28.4722 307.0186 0001482 281.8932  78.1497 15.29689938775404
SL-16 R/B               
1 20625U 90046B   26082.27003173  .00000142  00000+0  97784-4 0  9990
2 20625  70.9954 269.3906 0016251 281.8192  78.1107 14.15012758850317
COSMOS 2084             
1 20663U 90055A   26082.53581640  .00002490  00000+0  18479-3 0  9992
2 20663  62.7894 288.3505 0014915 194.0075 166.0614 15.05722611938400
SL-6 R/B(2)             
1 20666U 90055D   26082.07191533  .00002736  00000+0  21192-3 0  9991
2 20666  62.7831 208.3389 0026985 350.1703   9.8864 15.03658176940203
SL-8 R/B                
1 20775U 90078B   26081.94566125  .00016807  00000+0  49742-3 0  9990
2 20775  82.9019 239.3825 0359474 329.3321  28.7310 14.89473766811274
SL-8 R/B                
1 21088U 91006B   26082.48770074  .00000106  00000+0  90685-4 0  9998
2 21088  82.9455 159.7881 0022204   0.3297  10.1471 13.77496299765979
OKEAN-3                 
1 21397U 91039A   26082.37666733  .00002766  00000+0  19335-3 0  9997
2 21397  82.5171 323.5839 0012543 285.8960  74.0884 15.04888343867099
COSMOS 2151             
1 21422U 91042A   26082.49075593  .00002134  00000+0  16860-3 0  9990
2 21422  82.4941  70.3588 0013019  21.2048 338.9713 15.00158311865269
SL-14 R/B               
1 21423U 91042B   26082.33037214  .00000516  00000+0  62244-4 0  9992
2 21423  82.4947 207.3928 0016742 191.5367 168.5466 14.81843109855093
